[{"OBJECT_NAME":"HULIANWANG JISHU SHIYAN A","OBJECT_ID":"2023-095A","EPOCH":"2026-03-09T23:39:57.496896","MEAN_MOTION":13.39533885,"ECCENTRICITY":0.00194557,"INCLINATION":86.5016,"RA_OF_ASC_NODE":39.0925,"ARG_OF_PERICENTER":104.84,"MEAN_ANOMALY":255.49,"EPHEMERIS_TYPE":0,"CLASSIFICATION_TYPE":"U","NORAD_CAT_ID":57288,"ELEMENT_SET_NO":999,"REV_AT_EPOCH":13047,"BSTAR":0.0001102838,"MEAN_MOTION_DOT":7.5e-7,"MEAN_MOTION_DDOT":0},{"OBJECT_NAME":"CZ-4C DEB","OBJECT_ID":"2013-065C","EPOCH":"2026-03-09T03:10:28.242048","MEAN_MOTION":13.17691788,"ECCENTRICITY":0.013391,"INCLINATION":100.5765,"RA_OF_ASC_NODE":190.4454,"ARG_OF_PERICENTER":128.5564,"MEAN_ANOMALY":232.7637,"EPHEMERIS_TYPE":0,"CLASSIFICATION_TYPE":"U","NORAD_CAT_ID":43412,"ELEMENT_SET_NO":999,"REV_AT_EPOCH":58314,"BSTAR":0.00030994223,"MEAN_MOTION_DOT":8.1e-7,"MEAN_MOTION_DDOT":0}]
